NORAD_CAT_ID,OBJECT_NAME,OBJECT_TYPE,EPOCH,MEAN_MOTION,ECCENTRICITY,INCLINATION,RA_OF_ASC_NODE,ARG_OF_PERICENTER,MEAN_ANOMALY,BSTAR,MEAN_MOTION_DOT,MEAN_MOTION_DDOT,TLE_LINE0,TLE_LINE1,TLE_LINE2,SEMIMAJOR_AXIS,PERIOD,APOGEE,PERIGEE,DECAYED
52837.0,STARLINK-4036,PAYLOAD,2024-01-28 20:16:02,15.08835748,0.0001661,53.2174,254.5731,112.6442,247.4726,-2.1281e-05,-6.27e-06,0.0,0 STARLINK-4036,1 52837U 22062H   24028.84447841 -.00000627  00000-0 -21281-4 0  9998,2 52837  53.2174 254.5731 0001661 112.6442 247.4726 15.08835748 89413,6917.893,95.438,540.907,538.609,0.0
52837.0,STARLINK-4036,PAYLOAD,2024-01-28 21:51:26,15.08834698,0.0001561,53.2172,254.2761,107.3164,252.7999,-3.6837e-05,-8.74e-06,0.0,0 STARLINK-4036,1 52837U 22062H   24028.91071963 -.00000874  00000-0 -36837-4 0  9991,2 52837  53.2172 254.2761 0001561 107.3164 252.7999 15.08834698 89427,6917.897,95.438,540.841,538.682,0.0
52837.0,STARLINK-4036,PAYLOAD,2024-01-29 01:02:12,15.08833788,0.0001566,53.2172,253.682,107.1915,252.9249,-4.5411e-05,-1.011e-05,0.0,0 STARLINK-4036,1 52837U 22062H   24029.04320074 -.00001011  00000-0 -45411-4 0  9998,2 52837  53.2172 253.6820 0001566 107.1915 252.9249 15.08833788 89444,6917.899,95.438,540.848,538.681,0.0
52837.0,STARLINK-4036,PAYLOAD,2024-01-30 00:52:58,15.08845404,0.0001491,53.2168,249.2222,106.6156,253.5,0.00012647,1.726e-05,0.0,0 STARLINK-4036,1 52837U 22062H   24030.03678821  .00001726  00000-0  12647-3 0  9990,2 52837  53.2168 249.2222 0001491 106.6156 253.5000 15.08845404 89590,6917.864,95.437,540.76,538.697,0.0
52837.0,STARLINK-4036,PAYLOAD,2024-01-30 19:57:37,15.08833717,0.0001124,53.2153,245.6569,98.2818,261.8302,6.0249e-06,-1.92e-06,0.0,0 STARLINK-4036,1 52837U 22062H   24030.83168125 -.00000192  00000-0  60249-5 0  9999,2 52837  53.2153 245.6569 0001124  98.2818 261.8302 15.08833717 89717,6917.9,95.438,540.542,538.987,0.0
52837.0,STARLINK-4036,PAYLOAD,2024-01-30 21:33:00,15.08834697,0.0001135,53.2155,245.3593,90.89,269.2222,1.4103e-05,-6.3e-07,0.0,0 STARLINK-4036,1 52837U 22062H   24030.89792057 -.00000063  00000-0  14103-4 0  9996,2 52837  53.2155 245.3593 0001135  90.8900 269.2222 15.08834697 89727,6917.897,95.438,540.547,538.976,0.0
52837.0,STARLINK-4036,PAYLOAD,2024-01-30 23:08:23,15.08837939,0.0001577,53.2168,245.0532,120.3711,239.7437,5.8129e-05,6.37e-06,0.0,0 STARLINK-4036,1 52837U 22062H   24030.96415580  .00000637  00000-0  58129-4 0  9999,2 52837  53.2168 245.0532 0001577 120.3711 239.7437 15.08837939 89733,6917.887,95.438,540.843,538.661,0.0
52837.0,STARLINK-4036,PAYLOAD,2024-01-31 22:59:10,15.08819758,0.0001619,53.2162,240.5977,129.697,230.4165,0.00024946,3.682e-05,0.0,0 STARLINK-4036,1 52837U 22062H   24031.95775816  .00003682  00000-0  24946-3 0  9992,2 52837  53.2162 240.5977 0001619 129.6970 230.4165 15.08819758 89887,6917.942,95.439,540.927,538.687,0.0
52837.0,STARLINK-4036,PAYLOAD,2024-02-01 13:17:39,15.08818005,0.0001545,53.2163,237.9229,131.4813,228.6312,0.00024727,3.647e-05,0.0,0 STARLINK-4036,1 52837U 22062H   24032.55392667  .00003647  00000-0  24727-3 0  9996,2 52837  53.2163 237.9229 0001545 131.4813 228.6312 15.08818005 89970,6917.948,95.439,540.881,538.744,0.0
52837.0,STARLINK-4036,PAYLOAD,2024-02-01 18:03:48,15.08834422,0.0001547,53.2166,237.0326,113.5011,246.6144,5.2628e-05,5.5e-06,0.0,0 STARLINK-4036,1 52837U 22062H   24032.75264146  .00000550  00000-0  52628-4 0  9990,2 52837  53.2166 237.0326 0001547 113.5011 246.6144 15.08834422 90005,6917.897,95.438,540.833,538.692,0.0
52837.0,STARLINK-4036,PAYLOAD,2024-02-02 13:08:25,15.0883763,0.0001464,53.2167,233.4644,95.0039,265.112,8.1011e-05,1.001e-05,0.0,0 STARLINK-4036,1 52837U 22062H   24033.54752041  .00001001  00000-0  81011-4 0  9994,2 52837  53.2167 233.4644 0001464  95.0039 265.1120 15.08837630 90128,6917.888,95.438,540.765,538.74,0.0
52837.0,STARLINK-4036,PAYLOAD,2024-02-02 19:29:58,15.08839723,0.000153,53.2168,232.275,97.0673,263.0493,9.0017e-05,1.145e-05,0.0,0 STARLINK-4036,1 52837U 22062H   24033.81247933  .00001145  00000-0  90017-4 0  9998,2 52837  53.2168 232.2750 0001530  97.0673 263.0493 15.08839723 90163,6917.881,95.438,540.805,538.688,0.0
52837.0,STARLINK-4036,PAYLOAD,2024-02-03 19:20:45,15.08843318,0.0001361,53.216,227.814,92.5992,267.5156,7.8135e-05,9.56e-06,0.0,0 STARLINK-4036,1 52837U 22062H   24034.80607753  .00000956  00000-0  78135-4 0  9994,2 52837  53.2160 227.8140 0001361  92.5992 267.5156 15.08843318 90311,6917.87,95.437,540.677,538.794,0.0
52837.0,STARLINK-4036,PAYLOAD,2024-02-03 22:31:31,15.08843792,0.0001358,53.2159,227.219,92.1365,267.9782,7.7581e-05,9.47e-06,0.0,0 STARLINK-4036,1 52837U 22062H   24034.93855661  .00000947  00000-0  77581-4 0  9995,2 52837  53.2159 227.2190 0001358  92.1365 267.9782 15.08843792 90331,6917.869,95.437,540.673,538.794,0.0
52837.0,STARLINK-4036,PAYLOAD,2024-02-04 22:22:18,15.08842073,0.0001357,53.2158,222.757,93.6255,266.4892,1.065e-05,-1.18e-06,0.0,0 STARLINK-4036,1 52837U 22062H   24035.93215860 -.00000118  00000-0  10650-4 0  9992,2 52837  53.2158 222.7570 0001357  93.6255 266.4892 15.08842073 90488,6917.874,95.437,540.678,538.8,0.0
52837.0,STARLINK-4036,PAYLOAD,2024-02-05 12:40:47,15.08836293,0.0001378,53.2163,220.0796,95.534,264.581,-1.0639e-05,-4.57e-06,0.0,0 STARLINK-4036,1 52837U 22062H   24036.52832349 -.00000457  00000-0 -10639-4 0  9999,2 52837  53.2163 220.0796 0001378  95.5340 264.5810 15.08836293 90570,6917.892,95.438,540.71,538.803,0.0
52837.0,STARLINK-4036,PAYLOAD,2024-02-05 19:02:19,15.08838018,0.0001302,53.215,218.892,88.1992,271.915,-1.0174e-05,-4.5e-06,0.0,0 STARLINK-4036,1 52837U 22062H   24036.79328302 -.00000450  00000-0 -10174-4 0  9994,2 52837  53.2150 218.8920 0001302  88.1992 271.9150 15.08838018 90619,6917.886,95.438,540.652,538.851,0.0
52837.0,STARLINK-4036,PAYLOAD,2024-02-06 12:31:34,15.08837769,0.0001272,53.2152,215.62,80.8736,279.24,4.4474e-05,4.2e-06,0.0,0 STARLINK-4036,1 52837U 22062H   24037.52192259  .00000420  00000-0  44474-4 0  9991,2 52837  53.2152 215.6200 0001272  80.8736 279.2400 15.08837769 90721,6917.887,95.438,540.632,538.872,0.0
52837.0,STARLINK-4036,PAYLOAD,2024-02-06 17:17:43,15.08840772,0.0001291,53.2157,214.728,79.5269,280.5869,6.653e-05,7.71e-06,0.0,0 STARLINK-4036,1 52837U 22062H   24037.72064034  .00000771  00000-0  66530-4 0  9998,2 52837  53.2157 214.7280 0001291  79.5269 280.5869 15.08840772 90756,6917.878,95.438,540.636,538.85,0.0
52837.0,STARLINK-4036,PAYLOAD,2024-02-07 18:43:53,15.08838702,0.0001293,53.2165,209.9718,85.6056,274.5083,7.8906e-05,9.68e-06,0.0,0 STARLINK-4036,1 52837U 22062H   24038.78048347  .00000968  00000-0  78906-4 0  9992,2 52837  53.2165 209.9718 0001293  85.6056 274.5083 15.08838702 90910,6917.884,95.438,540.644,538.855,0.0
52837.0,STARLINK-4036,PAYLOAD,2024-02-08 04:16:12,15.08838714,0.0001323,53.2166,208.1863,77.4024,282.7116,5.2584e-05,5.49e-06,0.0,0 STARLINK-4036,1 52837U 22062H   24039.17792530  .00000549  00000-0  52584-4 0  9995,2 52837  53.2166 208.1863 0001323  77.4024 282.7116 15.08838714 90978,6917.884,95.438,540.665,538.834,0.0
52837.0,STARLINK-4036,PAYLOAD,2024-02-08 18:34:41,15.08831956,0.000147,53.2176,205.5116,83.9165,276.1995,-4.788e-05,-1.05e-05,0.0,0 STARLINK-4036,1 52837U 22062H   24039.77409539 -.00001050  00000-0 -47880-4 0  9998,2 52837  53.2176 205.5116 0001470  83.9165 276.1995 15.08831956 91066,6917.905,95.438,540.787,538.753,0.0
52837.0,STARLINK-4036,PAYLOAD,2024-02-09 10:28:32,15.08841331,0.000123,53.2171,202.5344,92.7155,267.3978,1.2168e-05,-9.4e-07,0.0,0 STARLINK-4036,1 52837U 22062H   24040.43648864 -.00000094  00000-0  12168-4 0  9996,2 52837  53.2171 202.5344 0001230  92.7155 267.3978 15.08841331 91164,6917.876,95.437,540.592,538.89,0.0
52837.0,STARLINK-4036,PAYLOAD,2024-02-09 18:25:27,15.08850782,0.0001295,53.2171,201.0516,81.8174,278.2965,0.00011877,1.603e-05,0.0,0 STARLINK-4036,1 52837U 22062H   24040.76767863  .00001603  00000-0  11877-3 0  9994,2 52837  53.2171 201.0516 0001295  81.8174 278.2965 15.08850782 91213,6917.847,95.437,540.608,538.817,0.0
52837.0,STARLINK-4036,PAYLOAD,2024-02-10 10:19:19,15.08837088,0.0001332,53.2181,198.0777,91.7752,268.3393,0.00012954,1.774e-05,0.0,0 STARLINK-4036,1 52837U 22062H   24041.43008769  .00001774  00000-0  12954-3 0  9998,2 52837  53.2181 198.0777 0001332  91.7752 268.3393 15.08837088 91312,6917.889,95.438,540.676,538.833,0.0
52837.0,STARLINK-4036,PAYLOAD,2024-02-10 16:40:51,15.08843884,0.0001181,53.2174,196.8891,88.207,271.9057,9.1578e-05,1.17e-05,0.0,0 STARLINK-4036,1 52837U 22062H   24041.69504458  .00001170  00000-0  91578-4 0  9992,2 52837  53.2174 196.8891 0001181  88.2070 271.9057 15.08843884 91355,6917.869,95.437,540.551,538.917,0.0
52837.0,STARLINK-4036,PAYLOAD,2024-02-11 14:56:15,15.08847725,0.0001334,53.2178,192.726,80.2771,279.8372,1.1685e-05,-1.02e-06,0.0,0 STARLINK-4036,1 52837U 22062H   24042.62240302 -.00000102  00000-0  11685-4 0  9997,2 52837  53.2178 192.7260 0001334  80.2771 279.8372 15.08847725 91494,6917.857,95.437,540.645,538.799,0.0
52837.0,STARLINK-4036,PAYLOAD,2024-02-11 19:42:24,15.08850024,0.0001365,53.2177,191.8336,80.3677,279.7469,3.8947e-05,3.32e-06,0.0,0 STARLINK-4036,1 52837U 22062H   24042.82111984  .00000332  00000-0  38947-4 0  9996,2 52837  53.2177 191.8336 0001365  80.3677 279.7469 15.08850024 91523,6917.85,95.437,540.659,538.77,0.0
52837.0,STARLINK-4036,PAYLOAD,2024-02-12 10:00:53,15.08841083,0.0001287,53.2176,189.155,113.0334,247.0794,5.396e-06,-2.02e-06,0.0,0 STARLINK-4036,1 52837U 22062H   24043.41728459 -.00000202  00000-0  53960-5 0  9993,2 52837  53.2176 189.1550 0001287 113.0334 247.0794 15.08841083 91611,6917.877,95.437,540.632,538.852,0.0
52837.0,STARLINK-4036,PAYLOAD,2024-02-12 14:47:02,15.08840883,0.0001475,53.2175,188.2653,92.793,267.3231,4.3234e-05,4e-06,0.0,0 STARLINK-4036,1 52837U 22062H   24043.61600492  .00000400  00000-0  43234-4 0  9992,2 52837  53.2175 188.2653 0001475  92.7930 267.3231 15.08840883 91649,6917.878,95.437,540.763,538.722,0.0
